start=new Date('2022-10-22T00:00:00.000Z').valueOf();
sats=[{"OBJECT_NAME":"STARLINK-1894","ARG_OF_PERICENTER":"85.2583","TLE_LINE1":"1 46744U 20074F   22294.56463675  .00000544  00000-0  55387-4 0  9994","MEAN_ANOMALY":"274.8569","BSTAR":"0.00005538700000","MEAN_ELEMENT_THEORY":"SGP4","PERIOD":"95.592","DECAY_DATE":null,"APOAPSIS":"548.204","RCS_SIZE":"LARGE","EPHEMERIS_TYPE":"0","REF_FRAME":"TEME","RA_OF_ASC_NODE":"106.3128","OBJECT_TYPE":"PAYLOAD","GP_ID":"215839840","FILE":"3628413","MEAN_MOTION_DDOT":"0.0000000000000","CLASSIFICATION_TYPE":"U","EPOCH":"2022-10-21T13:33:04.615200","COUNTRY_CODE":"US","LAUNCH_DATE":"2020-10-24","OBJECT_ID":"2020-074F","INCLINATION":"53.0543","NORAD_CAT_ID":"46744","ELEMENT_SET_NO":"999","ECCENTRICITY":"0.00014280","SITE":"AFETR","CENTER_NAME":"EARTH","TLE_LINE2":"2 46744  53.0543 106.3128 0001428  85.2583 274.8569 15.06399611110514","REV_AT_EPOCH":"11051","PERIAPSIS":"546.226","SEMIMAJOR_AXIS":"6925.350","MEAN_MOTION":"15.06399611","TIME_SYSTEM":"UTC","MEAN_MOTION_DOT":"0.00000544"},{"BSTAR":"0.00044309000000","MEAN_ANOMALY":"349.6111","TLE_LINE1":"1 46745U 20074G   22294.71538211  .00074404  00000-0  44309-3 0  9998","OBJECT_NAME":"STARLINK-1898","ARG_OF_PERICENTER":"10.5007","RCS_SIZE":"LARGE","EPHEMERIS_TYPE":"0","DECAY_DATE":null,"APOAPSIS":"341.299","PERIOD":"91.296","MEAN_ELEMENT_THEORY":"SGP4","GP_ID":"215840591","RA_OF_ASC_NODE":"5.7581","OBJECT_TYPE":"PAYLOAD","REF_FRAME":"TEME","CLASSIFICATION_TYPE":"U","EPOCH":"2022-10-21T17:10:09.014304","MEAN_MOTION_DDOT":"0.0000000000000","FILE":"3628413","OBJECT_ID":"2020-074G","LAUNCH_DATE":"2020-10-24","COUNTRY_CODE":"US","SITE":"AFETR","ECCENTRICITY":"0.00047470","NORAD_CAT_ID":"46745","ELEMENT_SET_NO":"999","INCLINATION":"53.0493","REV_AT_EPOCH":"11194","TLE_LINE2":"2 46745  53.0493   5.7581 0004747  10.5007 349.6111 15.77294878111942","CENTER_NAME":"EARTH","MEAN_MOTION_DOT":"0.00074404","TIME_SYSTEM":"UTC","PERIAPSIS":"334.923","SEMIMAJOR_AXIS":"6716.246","MEAN_MOTION":"15.77294878"},{"FILE":"3628413","MEAN_MOTION_DDOT":"0.0000000000000","CLASSIFICATION_TYPE":"U","EPOCH":"2022-10-21T13:55:40.361664","REF_FRAME":"TEME","RA_OF_ASC_NODE":"106.2429","OBJECT_TYPE":"PAYLOAD","GP_ID":"215841340","MEAN_ELEMENT_THEORY":"SGP4","PERIOD":"95.593","APOAPSIS":"548.142","DECAY_DATE":null,"EPHEMERIS_TYPE":"0","RCS_SIZE":"LARGE","OBJECT_NAME":"STARLINK-1905","ARG_OF_PERICENTER":"80.1871","MEAN_ANOMALY":"279.9264","TLE_LINE1":"1 46746U 20074H   22294.58032826  .00000237  00000-0  34787-4 0  9998","BSTAR":"0.00003478700000","PERIAPSIS":"546.341","MEAN_MOTION":"15.06390786","SEMIMAJOR_AXIS":"6925.377","TIME_SYSTEM":"UTC","MEAN_MOTION_DOT":"0.00000237","CENTER_NAME":"EARTH","TLE_LINE2":"2 46746  53.0542 106.2429 0001300  80.1871 279.9264 15.06390786110513","REV_AT_EPOCH":"11051","INCLINATION":"53.0542","NORAD_CAT_ID":"46746","ELEMENT_SET_NO":"999","SITE":"AFETR","ECCENTRICITY":"0.00013000","COUNTRY_CODE":"US","LAUNCH_DATE":"2020-10-24","OBJECT_ID":"2020-074H"},{"LAUNCH_DATE":"2020-10-24","COUNTRY_CODE":"US","OBJECT_ID":"2020-074J","SITE":"AFETR","ECCENTRICITY":"0.00015600","ELEMENT_SET_NO":"999","NORAD_CAT_ID":"46747","INCLINATION":"53.0529","REV_AT_EPOCH":"11054","CENTER_NAME":"EARTH","TLE_LINE2":"2 46747  53.0529 105.4340 0001560 116.5453 243.5696 15.06391023110544","MEAN_MOTION_DOT":"0.00000364","MEAN_MOTION":"15.06391023","PERIAPSIS":"546.161","SEMIMAJOR_AXIS":"6925.376","TIME_SYSTEM":"UTC","MEAN_ANOMALY":"243.5696","TLE_LINE1":"1 46747U 20074J   22294.76094272  .00000364  00000-0  43344-4 0  9992","BSTAR":"0.00004334400000","ARG_OF_PERICENTER":"116.5453","OBJECT_NAME":"STARLINK-1908","APOAPSIS":"548.321","DECAY_DATE":null,"EPHEMERIS_TYPE":"0","RCS_SIZE":"LARGE","MEAN_ELEMENT_THEORY":"SGP4","PERIOD":"95.593","OBJECT_TYPE":"PAYLOAD","RA_OF_ASC_NODE":"105.4340","GP_ID":"215840090","REF_FRAME":"TEME","EPOCH":"2022-10-21T18:15:45.451008","CLASSIFICATION_TYPE":"U","MEAN_MOTION_DDOT":"0.0000000000000","FILE":"3628413"},{"LAUNCH_DATE":"2020-10-24","COUNTRY_CODE":"US","OBJECT_ID":"2020-074K","INCLINATION":"53.0520","SITE":"AFETR","ECCENTRICITY":"0.00017460","NORAD_CAT_ID":"46748","ELEMENT_SET_NO":"999","CENTER_NAME":"EARTH","TLE_LINE2":"2 46748  53.0520 106.5856 0001746 107.9096 252.2083 15.06396168110501","REV_AT_EPOCH":"11050","PERIAPSIS":"546.016","MEAN_MOTION":"15.06396168","SEMIMAJOR_AXIS":"6925.360","TIME_SYSTEM":"UTC","MEAN_MOTION_DOT":"-0.00000573","ARG_OF_PERICENTER":"107.9096","OBJECT_NAME":"STARLINK-1910","MEAN_ANOMALY":"252.2083","TLE_LINE1":"1 46748U 20074K   22294.50292651 -.00000573  00000-0 -19593-4 0  9999","BSTAR":"-0.00001959300000","MEAN_ELEMENT_THEORY":"SGP4","PERIOD":"95.592","APOAPSIS":"548.434","DECAY_DATE":null,"RCS_SIZE":"LARGE","EPHEMERIS_TYPE":"0","REF_FRAME":"TEME","RA_OF_ASC_NODE":"106.5856","OBJECT_TYPE":"PAYLOAD","GP_ID":"215774041","FILE":"3627579","CLASSIFICATION_TYPE":"U","EPOCH":"2022-10-21T12:04:12.850464","MEAN_MOTION_DDOT":"0.0000000000000"},{"MEAN_MOTION":"15.06402256","PERIAPSIS":"546.301","SEMIMAJOR_AXIS":"6925.342","TIME_SYSTEM":"UTC","MEAN_MOTION_DOT":"0.00000365","CENTER_NAME":"EARTH","TLE_LINE2":"2 46749  53.0544 106.2643 0001308 101.8816 258.2320 15.06402256110513","REV_AT_EPOCH":"11051","INCLINATION":"53.0544","SITE":"AFETR","ECCENTRICITY":"0.00013080","ELEMENT_SET_NO":"999","NORAD_CAT_ID":"46749","LAUNCH_DATE":"2020-10-24","COUNTRY_CODE":"US","OBJECT_ID":"2020-074L","FILE":"3628413","CLASSIFICATION_TYPE":"U","EPOCH":"2022-10-21T13:50:21.210432","MEAN_MOTION_DDOT":"0.0000000000000","REF_FRAME":"TEME","OBJECT_TYPE":"PAYLOAD","RA_OF_ASC_NODE":"106.2643","GP_ID":"215841090","MEAN_ELEMENT_THEORY":"SGP4","PERIOD":"95.592","DECAY_DATE":null,"APOAPSIS":"548.112","EPHEMERIS_TYPE":"0","RCS_SIZE":"LARGE","ARG_OF_PERICENTER":"101.8816","OBJECT_NAME":"STARLINK-1911","TLE_LINE1":"1 46749U 20074L   22294.57663438  .00000365  00000-0  43374-4 0  9993","MEAN_ANOMALY":"258.2320","BSTAR":"0.00004337400000"},{"MEAN_MOTION_DOT":"-0.00000669","PERIAPSIS":"546.329","SEMIMAJOR_AXIS":"6925.371","MEAN_MOTION":"15.06392533","TIME_SYSTEM":"UTC","REV_AT_EPOCH":"11051","CENTER_NAME":"EARTH","TLE_LINE2":"2 46751  53.0551 106.5843 0001310 116.8529 243.2594 15.06392533110512","SITE":"AFETR","ECCENTRICITY":"0.00013100","ELEMENT_SET_NO":"999","NORAD_CAT_ID":"46751","INCLINATION":"53.0551","LAUNCH_DATE":"2020-10-24","COUNTRY_CODE":"US","OBJECT_ID":"2020-074N","CLASSIFICATION_TYPE":"U","EPOCH":"2022-10-21T12:09:31.368384","MEAN_MOTION_DDOT":"0.0000000000000","FILE":"3628219","RA_OF_ASC_NODE":"106.5843","OBJECT_TYPE":"PAYLOAD","GP_ID":"215818477","REF_FRAME":"TEME","DECAY_DATE":null,"APOAPSIS":"548.144","RCS_SIZE":"LARGE","EPHEMERIS_TYPE":"0","MEAN_ELEMENT_THEORY":"SGP4","PERIOD":"95.593","TLE_LINE1":"1 46751U 20074N   22294.50661306 -.00000669  00000-0 -26062-4 0  9995","MEAN_ANOMALY":"243.2594","BSTAR":"-0.00002606200000","ARG_OF_PERICENTER":"116.8529","OBJECT_NAME":"STARLINK-1920"},{"EPOCH":"2022-10-21T18:47:35.868192","CLASSIFICATION_TYPE":"U","MEAN_MOTION_DDOT":"0.0000000000000","FILE":"3628413","RA_OF_ASC_NODE":"105.3326","OBJECT_TYPE":"PAYLOAD","GP_ID":"215839592","REF_FRAME":"TEME","DECAY_DATE":null,"APOAPSIS":"548.200","RCS_SIZE":"LARGE","EPHEMERIS_TYPE":"0","MEAN_ELEMENT_THEORY":"SGP4","PERIOD":"95.592","TLE_LINE1":"1 46752U 20074P   22294.78305403  .00000434  00000-0  48013-4 0  9997","MEAN_ANOMALY":"243.0822","BSTAR":"0.00004801300000","OBJECT_NAME":"STARLINK-1921","ARG_OF_PERICENTER":"117.0312","MEAN_MOTION_DOT":"0.00000434","PERIAPSIS":"546.246","MEAN_MOTION":"15.06396894","SEMIMAJOR_AXIS":"6925.358","TIME_SYSTEM":"UTC","REV_AT_EPOCH":"11054","CENTER_NAME":"EARTH","TLE_LINE2":"2 46752  53.0560 105.3326 0001411 117.0312 243.0822 15.06396894110540","SITE":"AFETR","ECCENTRICITY":"0.00014110","NORAD_CAT_ID":"46752","ELEMENT_SET_NO":"999","INCLINATION":"53.0560","LAUNCH_DATE":"2020-10-24","COUNTRY_CODE":"US","OBJECT_ID":"2020-074P"},{"COUNTRY_CODE":"US","LAUNCH_DATE":"2020-10-24","OBJECT_ID":"2020-074Q","ELEMENT_SET_NO":"999","NORAD_CAT_ID":"46753","SITE":"AFETR","ECCENTRICITY":"0.00010290","INCLINATION":"53.0561","REV_AT_EPOCH":"11054","CENTER_NAME":"EARTH","TLE_LINE2":"2 46753  53.0561 105.4847 0001029  91.2688 268.8419 15.06394643110542","MEAN_MOTION_DOT":"-0.00000043","PERIAPSIS":"546.517","SEMIMAJOR_AXIS":"6925.365","MEAN_MOTION":"15.06394643","TIME_SYSTEM":"UTC","TLE_LINE1":"1 46753U 20074Q   22294.74987918 -.00000043  00000-0  15998-4 0  9994","MEAN_ANOMALY":"268.8419","BSTAR":"0.00001599800000","ARG_OF_PERICENTER":"91.2688","OBJECT_NAME":"STARLINK-1922","DECAY_DATE":null,"APOAPSIS":"547.943","EPHEMERIS_TYPE":"0","RCS_SIZE":"LARGE","MEAN_ELEMENT_THEORY":"SGP4","PERIOD":"95.592","OBJECT_TYPE":"PAYLOAD","RA_OF_ASC_NODE":"105.4847","GP_ID":"215840341","REF_FRAME":"TEME","MEAN_MOTION_DDOT":"0.0000000000000","CLASSIFICATION_TYPE":"U","EPOCH":"2022-10-21T17:59:49.561152","FILE":"3628413"},{"MEAN_MOTION_DOT":"0.00000052","TIME_SYSTEM":"UTC","SEMIMAJOR_AXIS":"6925.348","PERIAPSIS":"546.157","MEAN_MOTION":"15.06400302","REV_AT_EPOCH":"11054","TLE_LINE2":"2 46754  53.0544 105.4396 0001525 116.1971 243.9175 15.06400302110549","CENTER_NAME":"EARTH","SITE":"AFETR","ECCENTRICITY":"0.00015250","ELEMENT_SET_NO":"999","NORAD_CAT_ID":"46754","INCLINATION":"53.0544","OBJECT_ID":"2020-074R","LAUNCH_DATE":"2020-10-24","COUNTRY_CODE":"US","CLASSIFICATION_TYPE":"U","EPOCH":"2022-10-21T18:10:26.342112","MEAN_MOTION_DDOT":"0.0000000000000","FILE":"3628413","GP_ID":"215840592","OBJECT_TYPE":"PAYLOAD","RA_OF_ASC_NODE":"105.4396","REF_FRAME":"TEME","RCS_SIZE":"LARGE","EPHEMERIS_TYPE":"0","DECAY_DATE":null,"APOAPSIS":"548.269","PERIOD":"95.592","MEAN_ELEMENT_THEORY":"SGP4","BSTAR":"0.00002241300000","TLE_LINE1":"1 46754U 20074R   22294.75724933  .00000052  00000-0  22413-4 0  9991","MEAN_ANOMALY":"243.9175","OBJECT_NAME":"STARLINK-1923","ARG_OF_PERICENTER":"116.1971"}];
